{
    "satellites": [
        {
            "name": "starlink304",
            "title": "Starlink-304 (G17-11)",
            "tle": [
                "1 72001C 25218B   25269.22819676  .01308800  00000+0  19626-2 0    01",
                "2 72001  97.6075 127.5555 0010458 246.9501 129.0236 16.04161153    13"
            ],
            "stdMag": 5,
            "noradId": "70337",
            "tleUrl": "http://celestrak.org/NORAD/elements/supplemental/sup-gp.php?FILE=starlink&FORMAT=tle",
            "launchDate": "2025-09-26T04:26:29.000Z",
            "active": true
        },
        {
            "name": "starlink303",
            "title": "Starlink-303 (G10-15)",
            "tle": [
                "1 72001C 25216B   25268.40493611  .01123300  00000+0  19707-2 0    05",
                "2 72001  53.1631  31.1909 0006939 289.9583 344.9822 16.00918440    11"
            ],
            "stdMag": 5,
            "noradId": "70311",
            "tleUrl": "http://celestrak.org/NORAD/elements/supplemental/sup-gp.php?FILE=starlink-g10-15&FORMAT=tle",
            "launchDate": "2025-09-25T08:39:00.000Z",
            "active": true
        }
    ],
    "config": {}
}